{
  "type": "FeatureCollection",
  "features": [
    {
      "type": "Feature",
      "properties": {
        "norad_id": 15362,
        "name": "NOVA 3",
        "group": "nnss",
        "lat": 12.922718192567286,
        "lon": 80.5664144304858,
        "alt_km": 1161.2725455111104,
        "timestamp": "2025-12-17T19:34:08.307156+00:00",
        "meta_object_name": "NOVA 3",
        "meta_object_id": "1984-110A",
        "meta_epoch": "2025-12-17T07:06:03.071232",
        "meta_mean_motion": 13.23045081,
        "meta_eccentricity": 0.00301724,
        "meta_inclination": 90.1224,
        "meta_ra_of_asc_node": 80.5884,
        "meta_arg_of_pericenter": 318.9017,
        "meta_mean_anomaly": 100.8942,
        "meta_ephemeris_type": 0,
        "meta_classification_type": "U",
        "meta_norad_cat_id": 15362,
        "meta_element_set_no": 999,
        "meta_rev_at_epoch": 98759,
        "meta_bstar": 0.00015642908,
        "meta_mean_motion_dot": 7.4e-07,
        "meta_mean_motion_ddot": 0,
        "tle_line1": "1 15362U 84110A   25351.29586888  .00000074  00000+0  15643-3 0  9993",
        "tle_line2": "2 15362  90.1224  80.5884 0030172 318.9017 100.8942 13.23045081987591"
      },
      "geometry": {
        "type": "Point",
        "coordinates": [
          80.5664144304858,
          12.922718192567286
        ]
      }
    },
    {
      "type": "Feature",
      "properties": {
        "norad_id": 15935,
        "name": "OSCAR 30",
        "group": "nnss",
        "lat": -30.66821253602524,
        "lon": 100.02826022271539,
        "alt_km": 1150.5261865420862,
        "timestamp": "2025-12-17T19:34:08.307166+00:00",
        "meta_object_name": "OSCAR 30",
        "meta_object_id": "1985-066A",
        "meta_epoch": "2025-12-17T07:24:08.231040",
        "meta_mean_motion": 13.36079068,
        "meta_eccentricity": 0.01693219,
        "meta_inclination": 90.1655,
        "meta_ra_of_asc_node": 99.9218,
        "meta_arg_of_pericenter": 71.1599,
        "meta_mean_anomaly": 343.2707,
        "meta_ephemeris_type": 0,
        "meta_classification_type": "U",
        "meta_norad_cat_id": 15935,
        "meta_element_set_no": 999,
        "meta_rev_at_epoch": 96514,
        "meta_bstar": 0.00011114412,
        "meta_mean_motion_dot": 7.2e-07,
        "meta_mean_motion_ddot": 0,
        "tle_line1": "1 15935U 85066A   25351.30842860  .00000072  00000+0  11114-3 0  9994",
        "tle_line2": "2 15935  90.1655  99.9218 0169321  71.1599 343.2707 13.36079068965147"
      },
      "geometry": {
        "type": "Point",
        "coordinates": [
          100.02826022271539,
          -30.66821253602524
        ]
      }
    },
    {
      "type": "Feature",
      "properties": {
        "norad_id": 15936,
        "name": "OSCAR 24",
        "group": "nnss",
        "lat": 42.952358294944105,
        "lon": 92.22818137727744,
        "alt_km": 1013.1963045165721,
        "timestamp": "2025-12-17T19:34:08.307176+00:00",
        "meta_object_name": "OSCAR 24",
        "meta_object_id": "1985-066B",
        "meta_epoch": "2025-12-17T07:02:18.968640",
        "meta_mean_motion": 13.35936414,
        "meta_eccentricity": 0.01704117,
        "meta_inclination": 90.1792,
        "meta_ra_of_asc_node": 92.3859,
        "meta_arg_of_pericenter": 77.6323,
        "meta_mean_anomaly": 336.9613,
        "meta_ephemeris_type": 0,
        "meta_classification_type": "U",
        "meta_norad_cat_id": 15936,
        "meta_element_set_no": 999,
        "meta_rev_at_epoch": 96704,
        "meta_bstar": 8.6982351e-05,
        "meta_mean_motion_dot": 5.8e-07,
        "meta_mean_motion_ddot": 0,
        "tle_line1": "1 15936U 85066B   25351.29327510  .00000058  00000+0  86982-4 0  9993",
        "tle_line2": "2 15936  90.1792  92.3859 0170411  77.6323 336.9613 13.35936414967048"
      },
      "geometry": {
        "type": "Point",
        "coordinates": [
          92.22818137727744,
          42.952358294944105
        ]
      }
    },
    {
      "type": "Feature",
      "properties": {
        "norad_id": 17070,
        "name": "POLAR BEAR",
        "group": "nnss",
        "lat": -57.915316313815445,
        "lon": 4.1815972950406595,
        "alt_km": 1008.6962067313743,
        "timestamp": "2025-12-17T19:34:08.307186+00:00",
        "meta_object_name": "POLAR BEAR",
        "meta_object_id": "1986-088A",
        "meta_epoch": "2025-12-17T07:01:51.357792",
        "meta_mean_motion": 13.75251716,
        "meta_eccentricity": 0.00411923,
        "meta_inclination": 89.6171,
        "meta_ra_of_asc_node": 183.5915,
        "meta_arg_of_pericenter": 106.1101,
        "meta_mean_anomaly": 66.5279,
        "meta_ephemeris_type": 0,
        "meta_classification_type": "U",
        "meta_norad_cat_id": 17070,
        "meta_element_set_no": 999,
        "meta_rev_at_epoch": 96041,
        "meta_bstar": 0.00011323622,
        "meta_mean_motion_dot": 1.21e-06,
        "meta_mean_motion_ddot": 0,
        "tle_line1": "1 17070U 86088A   25351.29295553  .00000121  00000+0  11324-3 0  9998",
        "tle_line2": "2 17070  89.6171 183.5915 0041192 106.1101  66.5279 13.75251716960411"
      },
      "geometry": {
        "type": "Point",
        "coordinates": [
          4.1815972950406595,
          -57.915316313815445
        ]
      }
    },
    {
      "type": "Feature",
      "properties": {
        "norad_id": 18361,
        "name": "OSCAR 27",
        "group": "nnss",
        "lat": -57.61323660190999,
        "lon": 80.05253951372954,
        "alt_km": 1101.8651539451266,
        "timestamp": "2025-12-17T19:34:08.307196+00:00",
        "meta_object_name": "OSCAR 27",
        "meta_object_id": "1987-080A",
        "meta_epoch": "2025-12-17T07:21:31.966272",
        "meta_mean_motion": 13.44907623,
        "meta_eccentricity": 0.01032691,
        "meta_inclination": 90.3742,
        "meta_ra_of_asc_node": 79.4432,
        "meta_arg_of_pericenter": 210.6095,
        "meta_mean_anomaly": 148.9002,
        "meta_ephemeris_type": 0,
        "meta_classification_type": "U",
        "meta_norad_cat_id": 18361,
        "meta_element_set_no": 999,
        "meta_rev_at_epoch": 87618,
        "meta_bstar": 0.00014727531,
        "meta_mean_motion_dot": 9.7e-07,
        "meta_mean_motion_ddot": 0,
        "tle_line1": "1 18361U 87080A   25351.30661998  .00000097  00000+0  14728-3 0  9990",
        "tle_line2": "2 18361  90.3742  79.4432 0103269 210.6095 148.9002 13.44907623876182"
      },
      "geometry": {
        "type": "Point",
        "coordinates": [
          80.05253951372954,
          -57.61323660190999
        ]
      }
    },
    {
      "type": "Feature",
      "properties": {
        "norad_id": 18362,
        "name": "OSCAR 29",
        "group": "nnss",
        "lat": -53.82763438290192,
        "lon": 80.43511541589397,
        "alt_km": 1077.3488508758546,
        "timestamp": "2025-12-17T19:34:08.307215+00:00",
        "meta_object_name": "OSCAR 29",
        "meta_object_id": "1987-080B",
        "meta_epoch": "2025-12-17T07:39:36.464256",
        "meta_mean_motion": 13.44449213,
        "meta_eccentricity": 0.01041758,
        "meta_inclination": 90.3753,
        "meta_ra_of_asc_node": 79.9029,
        "meta_arg_of_pericenter": 233.8701,
        "meta_mean_anomaly": 191.0249,
        "meta_ephemeris_type": 0,
        "meta_classification_type": "U",
        "meta_norad_cat_id": 18362,
        "meta_element_set_no": 999,
        "meta_rev_at_epoch": 87571,
        "meta_bstar": 0.00012927642,
        "meta_mean_motion_dot": 8.5e-07,
        "meta_mean_motion_ddot": 0,
        "tle_line1": "1 18362U 87080B   25351.31917204  .00000085  00000+0  12928-3 0  9993",
        "tle_line2": "2 18362  90.3753  79.9029 0104175 233.8701 191.0249 13.44449213875716"
      },
      "geometry": {
        "type": "Point",
        "coordinates": [
          80.43511541589397,
          -53.82763438290192
        ]
      }
    },
    {
      "type": "Feature",
      "properties": {
        "norad_id": 19070,
        "name": "OSCAR 23",
        "group": "nnss",
        "lat": 44.5822363627252,
        "lon": -163.13356784100364,
        "alt_km": 1027.344142579158,
        "timestamp": "2025-12-17T19:34:08.307236+00:00",
        "meta_object_name": "OSCAR 23",
        "meta_object_id": "1988-033A",
        "meta_epoch": "2025-12-17T08:05:39.969024",
        "meta_mean_motion": 13.27787822,
        "meta_eccentricity": 0.01899119,
        "meta_inclination": 90.3209,
        "meta_ra_of_asc_node": 16.5351,
        "meta_arg_of_pericenter": 167.1497,
        "meta_mean_anomaly": 205.2488,
        "meta_ephemeris_type": 0,
        "meta_classification_type": "U",
        "meta_norad_cat_id": 19070,
        "meta_element_set_no": 999,
        "meta_rev_at_epoch": 82314,
        "meta_bstar": 0.00014541047,
        "meta_mean_motion_dot": 8.1e-07,
        "meta_mean_motion_ddot": 0,
        "tle_line1": "1 19070U 88033A   25351.33726816  .00000081  00000+0  14541-3 0  9997",
        "tle_line2": "2 19070  90.3209  16.5351 0189911 167.1497 205.2488 13.27787822823141"
      },
      "geometry": {
        "type": "Point",
        "coordinates": [
          -163.13356784100364,
          44.5822363627252
        ]
      }
    }
  ]
}